TIANMU-1 08             
1 57400U 23101B   26066.00237819  .00000346  00000+0  14775-4 0  9993
2 57400  97.2717 118.7901 0006380 134.2174 225.9592 15.29204229146020
STARLINK-35859          
1 67185U 25303Y   26068.06565655  .00037802  00000+0  13759-2 0  9996
2 67185  43.0016 313.8994 0001659 262.5678  97.4985 15.27586117 12645
